ONEWEB-0327             
1 49196U 21083L   24102.57717339  .00000003  00000+0 -25951-4 0  9993
2 49196  87.9143 134.0498 0002271  85.3602 274.7789 13.18686379125035
ONEWEB-0328             
1 49197U 21083M   24102.55613665 -.00000007  00000+0 -54629-4 0  9998
2 49197  87.8888 118.8192 0002156  92.7033 267.4343 13.13471271126320
ONEWEB-0331             
1 49198U 21083N   24102.59692293 -.00000025  00000+0 -96843-4 0  9991
2 49198  87.9143 134.0270 0002215  93.2706 266.8680 13.18685269125024
ONEWEB-0333             
1 49199U 21083P   24102.55138090 -.00000058  00000+0 -19510-3 0  9999
2 49199  87.8900 118.8392 0001795  91.4318 268.7017 13.13468424126338
ONEWEB-0334             
1 49200U 21083Q   24102.45256844  .00000001  00000+0 -30075-4 0  9996
2 49200  87.9160  73.0185 0001175  72.5979 287.5282 13.20770722131623
ONEWEB-0335             
1 49201U 21083R   24102.54660747 -.00000378  00000+0 -10698-2 0  9993
2 49201  87.8901 118.8287 0002095  94.9479 265.1889 13.13469499126348
ONEWEB-0336             
1 49202U 21083S   24102.59265559 -.00000073  00000+0 -23415-3 0  9995
2 49202  87.8899 118.8165 0001856  88.0253 272.1089 13.13470096126343
ONEWEB-0337             
1 49203U 21083T   24102.60202518 -.00000221  00000+0 -63939-3 0  9994
2 49203  87.8901 118.8129 0002095  94.4770 265.6599 13.13471092126349
